UNKNOWN                 
1 82529U          25315.18265130  .00000351  00000+0  60796-3 0  9997
2 82529  99.7920  39.5707 0235226 317.4669  70.4193 13.41059934585518
UNKNOWN                 
1 82560U          25313.63120419  .00002128  00000+0  17497-2 0  9993
2 82560  99.9855 253.7466 0012454  29.2327 150.0012 13.90497225607264
UNKNOWN                 
1 82597U          25315.50074465  .00004135  00000+0  13885-2 0  9997
2 82597  66.7709 230.2341 0095966 329.0013  30.5444 14.35558315624491
UNKNOWN                 
1 82617U          25314.70525597  .00001266  00000+0  33557-3 0  9999
2 82617  74.0265 303.7659 0040059 255.9498 103.7207 14.49325234632180
UNKNOWN                 
1 82627U          25316.30430986  .00001178  00000+0  30646-2 0  9992
2 82627  82.4727 270.3358 0007900 170.2829 345.3420 13.16237324574829
UNKNOWN                 
1 82642U          25315.99875109  .00003387  00000+0  18861-2 0  9992
2 82642  98.9722 226.7555 0137365 323.6725  35.5178 14.07005472611812
UNKNOWN                 
1 82683U          25313.43403608  .00002440  00000+0  93032-3 0  9998
2 82683  98.1772  24.8798 0212025 133.3690 228.5369 14.19997669457549
UNKNOWN                 
1 82693U          25315.14435684  .00003708  00000+0  43069-2 0  9990
2 82693 100.5308 275.7593 0040425  97.3716 263.2022 13.69249927549437
UNKNOWN                 
1 82698U          25316.49110086  .00003096  00000+0  18573-2 0  9992
2 82698  61.6107 231.4551 0684224 278.3393  74.0650 13.29295524534352
UNKNOWN                 
1 82708U          25314.00346481  .00001632  00000+0  63440-2 0  9996
2 82708 102.1657 154.0010 0062958 351.4707   8.5310 12.90493499519290
UNKNOWN                 
1 82729U          25315.94181736  .00001220  00000+0  42183-2 0  9997
2 82729  67.9673 199.1340 0829301  32.0360 332.8382 12.17722016531458
UNKNOWN                 
1 82739U          25316.37212266  .00003542  00000+0  29432-2 0  9990
2 82739  99.0867 113.7609 0173866  14.6855  13.9928 13.82551441601910
