CCSDS_OMM_VERS = 2.0
CREATION_DATE  = 
ORIGINATOR     = 

OBJECT_NAME    = UNKNOWN
OBJECT_ID      = 
CENTER_NAME    = EARTH
REF_FRAME      = TEME
TIME_SYSTEM    = UTC
MEAN_ELEMENT_THEORY = SGP/SGP4

EPOCH          = 2025-11-11T04:23:01.072320
MEAN_MOTION    = 13.41059934
ECCENTRICITY   = .0235226
INCLINATION    = 99.7920
RA_OF_ASC_NODE = 39.5707
ARG_OF_PERICENTER = 317.4669
MEAN_ANOMALY   = 70.4193

EPHEMERIS_TYPE = 0
CLASSIFICATION_TYPE = U
NORAD_CAT_ID   = 82529
ELEMENT_SET_NO = 999
REV_AT_EPOCH   = 58551
BSTAR          = .60796E-3
MEAN_MOTION_DOT = .351E-5
MEAN_MOTION_DDOT = 0

CCSDS_OMM_VERS = 2.0
CREATION_DATE  = 
ORIGINATOR     = 

OBJECT_NAME    = UNKNOWN
OBJECT_ID      = 
CENTER_NAME    = EARTH
REF_FRAME      = TEME
TIME_SYSTEM    = UTC
MEAN_ELEMENT_THEORY = SGP/SGP4

EPOCH          = 2025-11-09T15:08:56.042016
MEAN_MOTION    = 13.90497225
ECCENTRICITY   = .0012454
INCLINATION    = 99.9855
RA_OF_ASC_NODE = 253.7466
ARG_OF_PERICENTER = 29.2327
MEAN_ANOMALY   = 150.0012

EPHEMERIS_TYPE = 0
CLASSIFICATION_TYPE = U
NORAD_CAT_ID   = 82560
ELEMENT_SET_NO = 999
REV_AT_EPOCH   = 60726
BSTAR          = .17497E-2
MEAN_MOTION_DOT = .2128E-4
MEAN_MOTION_DDOT = 0

CCSDS_OMM_VERS = 2.0
CREATION_DATE  = 
ORIGINATOR     = 

OBJECT_NAME    = UNKNOWN
OBJECT_ID      = 
CENTER_NAME    = EARTH
REF_FRAME      = TEME
TIME_SYSTEM    = UTC
MEAN_ELEMENT_THEORY = SGP/SGP4

EPOCH          = 2025-11-11T12:01:04.337760
MEAN_MOTION    = 14.35558315
ECCENTRICITY   = .0095966
INCLINATION    = 66.7709
RA_OF_ASC_NODE = 230.2341
ARG_OF_PERICENTER = 329.0013
MEAN_ANOMALY   = 30.5444

EPHEMERIS_TYPE = 0
CLASSIFICATION_TYPE = U
NORAD_CAT_ID   = 82597
ELEMENT_SET_NO = 999
REV_AT_EPOCH   = 62449
BSTAR          = .13885E-2
MEAN_MOTION_DOT = .4135E-4
MEAN_MOTION_DDOT = 0

CCSDS_OMM_VERS = 2.0
CREATION_DATE  = 
ORIGINATOR     = 

OBJECT_NAME    = UNKNOWN
OBJECT_ID      = 
CENTER_NAME    = EARTH
REF_FRAME      = TEME
TIME_SYSTEM    = UTC
MEAN_ELEMENT_THEORY = SGP/SGP4

EPOCH          = 2025-11-10T16:55:34.115808
MEAN_MOTION    = 14.49325234
ECCENTRICITY   = .0040059
INCLINATION    = 74.0265
RA_OF_ASC_NODE = 303.7659
ARG_OF_PERICENTER = 255.9498
MEAN_ANOMALY   = 103.7207

EPHEMERIS_TYPE = 0
CLASSIFICATION_TYPE = U
NORAD_CAT_ID   = 82617
ELEMENT_SET_NO = 999
REV_AT_EPOCH   = 63218
BSTAR          = .33557E-3
MEAN_MOTION_DOT = .1266E-4
MEAN_MOTION_DDOT = 0

CCSDS_OMM_VERS = 2.0
CREATION_DATE  = 
ORIGINATOR     = 

OBJECT_NAME    = UNKNOWN
OBJECT_ID      = 
CENTER_NAME    = EARTH
REF_FRAME      = TEME
TIME_SYSTEM    = UTC
MEAN_ELEMENT_THEORY = SGP/SGP4

EPOCH          = 2025-11-12T07:18:12.371904
MEAN_MOTION    = 13.16237324
ECCENTRICITY   = .00079
INCLINATION    = 82.4727
RA_OF_ASC_NODE = 270.3358
ARG_OF_PERICENTER = 170.2829
MEAN_ANOMALY   = 345.3420

EPHEMERIS_TYPE = 0
CLASSIFICATION_TYPE = U
NORAD_CAT_ID   = 82627
ELEMENT_SET_NO = 999
REV_AT_EPOCH   = 57482
BSTAR          = .30646E-2
MEAN_MOTION_DOT = .1178E-4
MEAN_MOTION_DDOT = 0

CCSDS_OMM_VERS = 2.0
CREATION_DATE  = 
ORIGINATOR     = 

OBJECT_NAME    = UNKNOWN
OBJECT_ID      = 
CENTER_NAME    = EARTH
REF_FRAME      = TEME
TIME_SYSTEM    = UTC
MEAN_ELEMENT_THEORY = SGP/SGP4

EPOCH          = 2025-11-11T23:58:12.094176
MEAN_MOTION    = 14.07005472
ECCENTRICITY   = .0137365
INCLINATION    = 98.9722
RA_OF_ASC_NODE = 226.7555
ARG_OF_PERICENTER = 323.6725
MEAN_ANOMALY   = 35.5178

EPHEMERIS_TYPE = 0
CLASSIFICATION_TYPE = U
NORAD_CAT_ID   = 82642
ELEMENT_SET_NO = 999
REV_AT_EPOCH   = 61181
BSTAR          = .18861E-2
MEAN_MOTION_DOT = .3387E-4
MEAN_MOTION_DDOT = 0

CCSDS_OMM_VERS = 2.0
CREATION_DATE  = 
ORIGINATOR     = 

OBJECT_NAME    = UNKNOWN
OBJECT_ID      = 
CENTER_NAME    = EARTH
REF_FRAME      = TEME
TIME_SYSTEM    = UTC
MEAN_ELEMENT_THEORY = SGP/SGP4

EPOCH          = 2025-11-09T10:25:00.717312
MEAN_MOTION    = 14.19997669
ECCENTRICITY   = .0212025
INCLINATION    = 98.1772
RA_OF_ASC_NODE = 24.8798
ARG_OF_PERICENTER = 133.3690
MEAN_ANOMALY   = 228.5369

EPHEMERIS_TYPE = 0
CLASSIFICATION_TYPE = U
NORAD_CAT_ID   = 82683
ELEMENT_SET_NO = 999
REV_AT_EPOCH   = 45754
BSTAR          = .93032E-3
MEAN_MOTION_DOT = .244E-4
MEAN_MOTION_DDOT = 0

CCSDS_OMM_VERS = 2.0
CREATION_DATE  = 
ORIGINATOR     = 

OBJECT_NAME    = UNKNOWN
OBJECT_ID      = 
CENTER_NAME    = EARTH
REF_FRAME      = TEME
TIME_SYSTEM    = UTC
MEAN_ELEMENT_THEORY = SGP/SGP4

EPOCH          = 2025-11-11T03:27:52.430976
MEAN_MOTION    = 13.69249927
ECCENTRICITY   = .0040425
INCLINATION    = 100.5308
RA_OF_ASC_NODE = 275.7593
ARG_OF_PERICENTER = 97.3716
MEAN_ANOMALY   = 263.2022

EPHEMERIS_TYPE = 0
CLASSIFICATION_TYPE = U
NORAD_CAT_ID   = 82693
ELEMENT_SET_NO = 999
REV_AT_EPOCH   = 54943
BSTAR          = .43069E-2
MEAN_MOTION_DOT = .3708E-4
MEAN_MOTION_DDOT = 0

CCSDS_OMM_VERS = 2.0
CREATION_DATE  = 
ORIGINATOR     = 

OBJECT_NAME    = UNKNOWN
OBJECT_ID      = 
CENTER_NAME    = EARTH
REF_FRAME      = TEME
TIME_SYSTEM    = UTC
MEAN_ELEMENT_THEORY = SGP/SGP4

EPOCH          = 2025-11-12T11:47:11.114304
MEAN_MOTION    = 13.29295524
ECCENTRICITY   = .0684224
INCLINATION    = 61.6107
RA_OF_ASC_NODE = 231.4551
ARG_OF_PERICENTER = 278.3393
MEAN_ANOMALY   = 74.0650

EPHEMERIS_TYPE = 0
CLASSIFICATION_TYPE = U
NORAD_CAT_ID   = 82698
ELEMENT_SET_NO = 999
REV_AT_EPOCH   = 53435
BSTAR          = .18573E-2
MEAN_MOTION_DOT = .3096E-4
MEAN_MOTION_DDOT = 0

CCSDS_OMM_VERS = 2.0
CREATION_DATE  = 
ORIGINATOR     = 

OBJECT_NAME    = UNKNOWN
OBJECT_ID      = 
CENTER_NAME    = EARTH
REF_FRAME      = TEME
TIME_SYSTEM    = UTC
MEAN_ELEMENT_THEORY = SGP/SGP4

EPOCH          = 2025-11-10T00:04:59.359584
MEAN_MOTION    = 12.90493499
ECCENTRICITY   = .0062958
INCLINATION    = 102.1657
RA_OF_ASC_NODE = 154.0010
ARG_OF_PERICENTER = 351.4707
MEAN_ANOMALY   = 8.5310

EPHEMERIS_TYPE = 0
CLASSIFICATION_TYPE = U
NORAD_CAT_ID   = 82708
ELEMENT_SET_NO = 999
REV_AT_EPOCH   = 51929
BSTAR          = .6344E-2
MEAN_MOTION_DOT = .1632E-4
MEAN_MOTION_DDOT = 0

CCSDS_OMM_VERS = 2.0
CREATION_DATE  = 
ORIGINATOR     = 

OBJECT_NAME    = UNKNOWN
OBJECT_ID      = 
CENTER_NAME    = EARTH
REF_FRAME      = TEME
TIME_SYSTEM    = UTC
MEAN_ELEMENT_THEORY = SGP/SGP4

EPOCH          = 2025-11-11T22:36:13.019904
MEAN_MOTION    = 12.17722016
ECCENTRICITY   = .0829301
INCLINATION    = 67.9673
RA_OF_ASC_NODE = 199.1340
ARG_OF_PERICENTER = 32.0360
MEAN_ANOMALY   = 332.8382

EPHEMERIS_TYPE = 0
CLASSIFICATION_TYPE = U
NORAD_CAT_ID   = 82729
ELEMENT_SET_NO = 999
REV_AT_EPOCH   = 53145
BSTAR          = .42183E-2
MEAN_MOTION_DOT = .122E-4
MEAN_MOTION_DDOT = 0

CCSDS_OMM_VERS = 2.0
CREATION_DATE  = 
ORIGINATOR     = 

OBJECT_NAME    = UNKNOWN
OBJECT_ID      = 
CENTER_NAME    = EARTH
REF_FRAME      = TEME
TIME_SYSTEM    = UTC
MEAN_ELEMENT_THEORY = SGP/SGP4

EPOCH          = 2025-11-12T08:55:51.397824
MEAN_MOTION    = 13.82551441
ECCENTRICITY   = .0173866
INCLINATION    = 99.0867
RA_OF_ASC_NODE = 113.7609
ARG_OF_PERICENTER = 14.6855
MEAN_ANOMALY   = 13.9928

EPHEMERIS_TYPE = 0
CLASSIFICATION_TYPE = U
NORAD_CAT_ID   = 82739
ELEMENT_SET_NO = 999
REV_AT_EPOCH   = 60191
BSTAR          = .29432E-2
MEAN_MOTION_DOT = .3542E-4
MEAN_MOTION_DDOT = 0

